[{"OBJECT_NAME":"ITAMSAT (IO-26)","OBJECT_ID":"1993-061D","EPOCH":"2026-03-09T18:51:40.558176","MEAN_MOTION":14.31337175,"ECCENTRICITY":0.00091856,"INCLINATION":98.6929,"RA_OF_ASC_NODE":136.1036,"ARG_OF_PERICENTER":22.8845,"MEAN_ANOMALY":337.2746,"EPHEMERIS_TYPE":0,"CLASSIFICATION_TYPE":"U","NORAD_CAT_ID":22826,"ELEMENT_SET_NO":999,"REV_AT_EPOCH":69309,"BSTAR":7.3937292e-5,"MEAN_MOTION_DOT":1.51e-6,"MEAN_MOTION_DDOT":0},{"OBJECT_NAME":"COSMOS 2251 DEB","OBJECT_ID":"1993-036UQ","EPOCH":"2026-03-09T06:02:55.569984","MEAN_MOTION":14.3813603,"ECCENTRICITY":0.00232911,"INCLINATION":74.0384,"RA_OF_ASC_NODE":139.675,"ARG_OF_PERICENTER":188.9623,"MEAN_ANOMALY":228.4367,"EPHEMERIS_TYPE":0,"CLASSIFICATION_TYPE":"U","NORAD_CAT_ID":34554,"ELEMENT_SET_NO":999,"REV_AT_EPOCH":88999,"BSTAR":0.00031040558,"MEAN_MOTION_DOT":9.18e-6,"MEAN_MOTION_DDOT":0}]
